{
  "type": "FeatureCollection",
  "features": [
    {
      "type": "Feature",
      "properties": {
        "norad_id": 31160,
        "name": "FENGYUN 1C DEB",
        "group": "fengyun-1c-debris",
        "lat": -46.020172588779225,
        "lon": -134.19489748624682,
        "alt_km": 860.1483501061684,
        "timestamp": "2025-12-25T03:55:56.638686+00:00",
        "meta_object_name": "FENGYUN 1C DEB",
        "meta_object_id": "1999-025BHN",
        "meta_epoch": "2025-12-23T21:41:00.062016",
        "meta_mean_motion": 13.99593412,
        "meta_eccentricity": 0.0057633,
        "meta_inclination": 99.0833,
        "meta_ra_of_asc_node": 54.0972,
        "meta_arg_of_pericenter": 224.8785,
        "meta_mean_anomaly": 134.7712,
        "meta_ephemeris_type": 0,
        "meta_classification_type": "U",
        "meta_norad_cat_id": 31160,
        "meta_element_set_no": 999,
        "meta_rev_at_epoch": 69755,
        "meta_bstar": -5.6933e-05,
        "meta_mean_motion_dot": -1.29e-06,
        "meta_mean_motion_ddot": 0,
        "tle_line1": "1 31160U 99025BHN 25357.90347294 -.00000129  00000+0 -56933-4 0  9999",
        "tle_line2": "2 31160  99.0833  54.0972 0057633 224.8785 134.7712 13.99593412697555"
      },
      "geometry": {
        "type": "Point",
        "coordinates": [
          -134.19489748624682,
          -46.020172588779225
        ]
      }
    },
    {
      "type": "Feature",
      "properties": {
        "norad_id": 31161,
        "name": "FENGYUN 1C DEB",
        "group": "fengyun-1c-debris",
        "lat": -16.98486371315342,
        "lon": 23.084818339728223,
        "alt_km": 823.2745265722715,
        "timestamp": "2025-12-25T03:55:56.638697+00:00",
        "meta_object_name": "FENGYUN 1C DEB",
        "meta_object_id": "1999-025BHP",
        "meta_epoch": "2025-12-23T19:38:15.716544",
        "meta_mean_motion": 14.09262541,
        "meta_eccentricity": 0.00679423,
        "meta_inclination": 98.7477,
        "meta_ra_of_asc_node": 19.0826,
        "meta_arg_of_pericenter": 318.5499,
        "meta_mean_anomaly": 41.0529,
        "meta_ephemeris_type": 0,
        "meta_classification_type": "U",
        "meta_norad_cat_id": 31161,
        "meta_element_set_no": 999,
        "meta_rev_at_epoch": 96258,
        "meta_bstar": 0.00024236438,
        "meta_mean_motion_dot": 3.87e-06,
        "meta_mean_motion_ddot": 0,
        "tle_line1": "1 31161U 99025BHP 25357.81823746  .00000387  00000+0  24236-3 0  9995",
        "tle_line2": "2 31161  98.7477  19.0826 0067942 318.5499  41.0529 14.09262541962584"
      },
      "geometry": {
        "type": "Point",
        "coordinates": [
          23.084818339728223,
          -16.98486371315342
        ]
      }
    },
    {
      "type": "Feature",
      "properties": {
        "norad_id": 31165,
        "name": "FENGYUN 1C DEB",
        "group": "fengyun-1c-debris",
        "lat": 7.960323191781673,
        "lon": -118.67062556525055,
        "alt_km": 614.3194338955082,
        "timestamp": "2025-12-25T03:55:56.638707+00:00",
        "meta_object_name": "FENGYUN 1C DEB",
        "meta_object_id": "1999-025BHT",
        "meta_epoch": "2025-12-24T02:48:27.724320",
        "meta_mean_motion": 14.71218938,
        "meta_eccentricity": 0.00695704,
        "meta_inclination": 98.8836,
        "meta_ra_of_asc_node": 58.935,
        "meta_arg_of_pericenter": 199.3227,
        "meta_mean_anomaly": 191.4631,
        "meta_ephemeris_type": 0,
        "meta_classification_type": "U",
        "meta_norad_cat_id": 31165,
        "meta_element_set_no": 999,
        "meta_rev_at_epoch": 98922,
        "meta_bstar": 0.0013134818,
        "meta_mean_motion_dot": 8.356e-05,
        "meta_mean_motion_ddot": 0,
        "tle_line1": "1 31165U 99025BHT 25358.11698755  .00008356  00000+0  13135-2 0  9992",
        "tle_line2": "2 31165  98.8836  58.9350 0069570 199.3227 191.4631 14.71218938989229"
      },
      "geometry": {
        "type": "Point",
        "coordinates": [
          -118.67062556525055,
          7.960323191781673
        ]
      }
    },
    {
      "type": "Feature",
      "properties": {
        "norad_id": 31168,
        "name": "FENGYUN 1C DEB",
        "group": "fengyun-1c-debris",
        "lat": -81.03947089972566,
        "lon": -131.67103769072287,
        "alt_km": 709.9770686572601,
        "timestamp": "2025-12-25T03:55:56.638720+00:00",
        "meta_object_name": "FENGYUN 1C DEB",
        "meta_object_id": "1999-025BHW",
        "meta_epoch": "2025-12-24T15:15:09.392832",
        "meta_mean_motion": 14.67426314,
        "meta_eccentricity": 0.0108353,
        "meta_inclination": 98.8915,
        "meta_ra_of_asc_node": 130.8913,
        "meta_arg_of_pericenter": 27.0299,
        "meta_mean_anomaly": 333.6488,
        "meta_ephemeris_type": 0,
        "meta_classification_type": "U",
        "meta_norad_cat_id": 31168,
        "meta_element_set_no": 999,
        "meta_rev_at_epoch": 99295,
        "meta_bstar": 0.00057303,
        "meta_mean_motion_dot": 3.479e-05,
        "meta_mean_motion_ddot": 0,
        "tle_line1": "1 31168U 99025BHW 25358.63552538  .00003479  00000+0  57303-3 0  9997",
        "tle_line2": "2 31168  98.8915 130.8913 0108353  27.0299 333.6488 14.67426314992952"
      },
      "geometry": {
        "type": "Point",
        "coordinates": [
          -131.67103769072287,
          -81.03947089972566
        ]
      }
    },
    {
      "type": "Feature",
      "properties": {
        "norad_id": 31169,
        "name": "FENGYUN 1C DEB",
        "group": "fengyun-1c-debris",
        "lat": 73.98075020497647,
        "lon": -119.66311921885031,
        "alt_km": 817.7106600584157,
        "timestamp": "2025-12-25T03:55:56.638731+00:00",
        "meta_object_name": "FENGYUN 1C DEB",
        "meta_object_id": "1999-025BHX",
        "meta_epoch": "2025-12-24T00:31:09.564672",
        "meta_mean_motion": 14.2655263,
        "meta_eccentricity": 0.00572713,
        "meta_inclination": 99.1564,
        "meta_ra_of_asc_node": 24.9651,
        "meta_arg_of_pericenter": 344.5259,
        "meta_mean_anomaly": 15.4167,
        "meta_ephemeris_type": 0,
        "meta_classification_type": "U",
        "meta_norad_cat_id": 31169,
        "meta_element_set_no": 999,
        "meta_rev_at_epoch": 57265,
        "meta_bstar": 0.0020668623,
        "meta_mean_motion_dot": 5.027e-05,
        "meta_mean_motion_ddot": 0,
        "tle_line1": "1 31169U 99025BHX 25358.02163848  .00005027  00000+0  20669-2 0  9998",
        "tle_line2": "2 31169  99.1564  24.9651 0057271 344.5259  15.4167 14.26552630572650"
      },
      "geometry": {
        "type": "Point",
        "coordinates": [
          -119.66311921885031,
          73.98075020497647
        ]
      }
    },
    {
      "type": "Feature",
      "properties": {
        "norad_id": 31171,
        "name": "FENGYUN 1C DEB",
        "group": "fengyun-1c-debris",
        "lat": -31.703596040987676,
        "lon": 162.95985559085747,
        "alt_km": 736.7740437692819,
        "timestamp": "2025-12-25T03:55:56.638741+00:00",
        "meta_object_name": "FENGYUN 1C DEB",
        "meta_object_id": "1999-025BHZ",
        "meta_epoch": "2025-12-23T05:49:54.685056",
        "meta_mean_motion": 14.35071995,
        "meta_eccentricity": 0.01531947,
        "meta_inclination": 98.0162,
        "meta_ra_of_asc_node": 346.1686,
        "meta_arg_of_pericenter": 284.8924,
        "meta_mean_anomaly": 90.6441,
        "meta_ephemeris_type": 0,
        "meta_classification_type": "U",
        "meta_norad_cat_id": 31171,
        "meta_element_set_no": 999,
        "meta_rev_at_epoch": 95981,
        "meta_bstar": 0.0038414381,
        "meta_mean_motion_dot": 0.00012487,
        "meta_mean_motion_ddot": 0,
        "tle_line1": "1 31171U 99025BHZ 25357.24299404  .00012487  00000+0  38414-2 0  9997",
        "tle_line2": "2 31171  98.0162 346.1686 0153194 284.8924  90.6441 14.35071995959815"
      },
      "geometry": {
        "type": "Point",
        "coordinates": [
          162.95985559085747,
          -31.703596040987676
        ]
      }
    },
    {
      "type": "Feature",
      "properties": {
        "norad_id": 31172,
        "name": "FENGYUN 1C DEB",
        "group": "fengyun-1c-debris",
        "lat": -40.394936868894355,
        "lon": 10.519203258775535,
        "alt_km": 787.2375263731228,
        "timestamp": "2025-12-25T03:55:56.638751+00:00",
        "meta_object_name": "FENGYUN 1C DEB",
        "meta_object_id": "1999-025BJA",
        "meta_epoch": "2025-12-23T06:49:55.129440",
        "meta_mean_motion": 14.31522968,
        "meta_eccentricity": 0.01481991,
        "meta_inclination": 98.4249,
        "meta_ra_of_asc_node": 1.4503,
        "meta_arg_of_pericenter": 237.0647,
        "meta_mean_anomaly": 121.6211,
        "meta_ephemeris_type": 0,
        "meta_classification_type": "U",
        "meta_norad_cat_id": 31172,
        "meta_element_set_no": 999,
        "meta_rev_at_epoch": 97777,
        "meta_bstar": 0.00013056442,
        "meta_mean_motion_dot": 3.45e-06,
        "meta_mean_motion_ddot": 0,
        "tle_line1": "1 31172U 99025BJA 25357.28466585  .00000345  00000+0  13056-3 0  9994",
        "tle_line2": "2 31172  98.4249   1.4503 0148199 237.0647 121.6211 14.31522968977778"
      },
      "geometry": {
        "type": "Point",
        "coordinates": [
          10.519203258775535,
          -40.394936868894355
        ]
      }
    }
  ]
}